IRIDIUM 119             
1 42959U 17061E   25312.44887288  .00000012  00000+0 -27134-5 0  9991
2 42959  86.3941 117.5512 0002052  83.3708 276.7722 14.34217598423176
IRIDIUM 107             
1 42960U 17061F   25312.46791351  .00000163  00000+0  51003-4 0  9997
2 42960  86.3941 117.5633 0001785  80.1194 280.0203 14.34218312423186
IRIDIUM 132             
1 42961U 17061G   25312.47424193  .00000078  00000+0  20929-4 0  9994
2 42961  86.3939 117.5416 0001944  88.7438 271.3980 14.34218206423182
IRIDIUM 136             
1 42962U 17061H   25312.50595550  .00000068  00000+0  17206-4 0  9998
2 42962  86.3938 117.5337 0002040  85.6169 274.5260 14.34218135423209
IRIDIUM 139             
1 42963U 17061J   25312.44253015  .00000023  00000+0  12342-5 0  9997
2 42963  86.3940 117.6187 0001819  87.8531 272.2873 14.34217651423204
IRIDIUM 125             
1 42964U 17061K   25312.49961303  .00000050  00000+0  10744-4 0  9992
2 42964  86.3942 117.6520 0002008  74.3020 285.8397 14.34217997423229
IRIDIUM 135             
1 43070U 17083A   25312.33420317  .00000149  00000+0  46110-4 0  9998
2 43070  86.3978  54.3230 0002130 100.2023 259.9413 14.34218419412498
IRIDIUM 138             
1 43071U 17083B   25312.35957441  .00000082  00000+0  22286-4 0  9998
2 43071  86.3992  53.9736 0002337  87.4829 272.6635 14.34218121412487
